OBJECT_NAME,OBJECT_ID,EPOCH,MEAN_MOTION,ECCENTRICITY,INCLINATION,RA_OF_ASC_NODE,ARG_OF_PERICENTER,MEAN_ANOMALY,EPHEMERIS_TYPE,CLASSIFICATION_TYPE,NORAD_CAT_ID,ELEMENT_SET_NO,REV_AT_EPOCH,BSTAR,MEAN_MOTION_DOT,MEAN_MOTION_DDOT
STARLINK-11486 [DTC],2024-254F,2025-07-21T08:21:35.654112,15.70853399,0.0001412,42.9994,177.7534,266.2456,93.825,0,U,62467,999,3301,8.13E-04,1.05E-03,0
STARLINK-11511 [DTC],2024-254G,2025-07-21T07:50:59.076960,15.70934988,0.0002384,43.0003,177.5822,287.3224,72.7382,0,U,62468,999,3301,1.51E-03,1.99E-03,0
STARLINK-11505 [DTC],2024-254H,2025-07-21T07:35:43.268064,15.70897896,0.0001799,42.9999,177.496,282.8863,77.1804,0,U,62469,999,3300,1.65E-03,2.17E-03,0
STARLINK-11497 [DTC],2024-254J,2025-07-21T04:55:32.169216,15.70863167,0.0001822,42.9997,178.3906,274.22,85.846,0,U,62470,999,3299,1.07E-03,1.39E-03,0
STARLINK-11477 [DTC],2024-254K,2025-07-20T22:42:57.898944,15.70972727,0.000137,42.9986,179.8874,236.2545,123.8193,0,U,62471,999,3294,1.79E-03,2.37E-03,0
STARLINK-11500 [DTC],2024-254L,2025-07-21T07:20:25.647360,15.70889283,0.0002275,43.0015,177.409,276.0216,84.0393,0,U,62472,999,3248,1.37E-03,1.80E-03,0
STARLINK-11464 [DTC],2024-254M,2025-07-21T05:03:10.910016,15.70862822,0.0001787,42.9984,178.4316,259.2103,100.8563,0,U,62473,999,3299,1.18E-03,1.54E-03,0
STARLINK-11502 [DTC],2024-254N,2025-07-20T10:21:32.743872,15.70845733,0.0001954,42.9989,182.9027,28.6961,331.4014,0,U,62474,999,3287,1.83E-03,2.41E-03,0
STARLINK-32657,2024-254P,2025-07-20T19:42:26.723232,15.27581374,0.000065,42.9954,249.136,250.0342,110.0439,0,U,62475,999,3200,4.66E-04,1.26E-04,0
STARLINK-32734,2024-254Q,2025-07-21T04:07:13.506240,15.27589825,0.0001465,43.0009,244.0064,261.7527,98.3159,0,U,62476,999,3224,4.72E-04,1.27E-04,0
STARLINK-32733,2024-254R,2025-07-21T04:44:01.261248,15.27590684,0.0001792,42.999,243.3315,276.5382,83.5266,0,U,62477,999,3225,6.45E-04,1.75E-04,0
STARLINK-32707,2024-254S,2025-07-21T05:26:34.663776,15.27582863,0.0001275,42.9999,243.5527,266.2754,93.7952,0,U,62478,999,3225,1.83E-04,4.78E-05,0
STARLINK-32705,2024-254T,2025-07-21T10:30:35.097408,15.27591247,0.0001393,42.9957,234.7746,272.4825,87.5867,0,U,62479,999,3221,5.04E-04,1.36E-04,0
STARLINK-32743,2024-254U,2025-07-21T09:15:23.247072,15.27601659,0.0001089,42.9982,242.169,270.4212,89.6514,0,U,62480,999,3228,7.37E-04,2.01E-04,0
STARLINK-32753,2024-254V,2025-07-21T03:20:58.151616,15.27586859,0.0001292,42.9968,243.7586,267.1038,92.9666,0,U,62481,999,3224,4.80E-04,1.30E-04,0
STARLINK-32699,2024-254W,2025-07-21T09:40:35.886432,15.27593799,0.0000911,42.9959,245.7642,270.3863,89.6884,0,U,62482,999,3208,8.35E-04,2.28E-04,0
STARLINK-32713,2025-003A,2025-07-21T07:20:04.482816,15.27592992,0.0000779,42.9992,155.7731,262.8382,97.2381,0,U,62487,999,3111,3.83E-04,1.03E-04,0
STARLINK-32732,2025-003B,2025-07-21T06:31:57.885600,15.27579775,0.0001767,43.0017,155.5123,275.5543,84.5107,0,U,62488,999,3112,2.50E-04,6.63E-05,0
STARLINK-32328,2025-003C,2025-07-21T06:08:07.723680,15.27587585,0.0000252,43.0003,156.2585,306.6218,53.461,0,U,62489,999,3127,5.69E-04,1.54E-04,0
STARLINK-32332,2025-003D,2025-07-20T14:09:54.406656,15.27578822,0.0001036,43.0019,159.8626,266.0257,94.0477,0,U,62490,999,3116,5.43E-04,1.47E-04,0
STARLINK-32717,2025-003E,2025-07-21T05:23:42.922176,15.2758615,0.0000949,42.9988,156.0203,261.0183,99.0561,0,U,62491,999,3127,4.32E-04,1.17E-04,0
STARLINK-32757,2025-003F,2025-07-21T06:00:43.508448,15.27576469,0.0001551,42.9978,156.2184,260.1686,99.899,0,U,62492,999,3110,3.76E-04,1.01E-04,0
STARLINK-32731,2025-003G,2025-07-21T04:45:04.409280,15.27611485,0.0001547,43.0007,156.6812,254.4821,105.586,0,U,62493,999,3126,4.62E-04,1.25E-04,0
STARLINK-32694,2025-003H,2025-07-21T05:08:54.621312,15.27587543,0.0001137,42.9956,155.9406,275.2149,84.8573,0,U,62494,999,3127,5.20E-04,1.41E-04,0
STARLINK-32708,2025-003J,2025-07-21T04:21:00.773280,15.27593787,0.000013,43.0013,156.555,343.443,16.6418,0,U,62495,999,3114,5.37E-04,1.45E-04,0
STARLINK-32718,2025-003K,2025-07-21T05:03:21.637440,15.27585285,0.0001509,42.9974,155.9173,274.4924,85.5755,0,U,62496,999,3111,5.94E-04,1.61E-04,0
STARLINK-32729,2025-003L,2025-07-21T06:48:36.790560,15.27589705,0.0001595,42.9995,155.5956,268.6602,91.4067,0,U,62497,999,3128,4.70E-04,1.27E-04,0
STARLINK-32739,2025-003M,2025-07-20T13:55:06.471264,15.27584232,0.0000477,42.9944,159.7764,345.596,14.4878,0,U,62498,999,3112,4.07E-04,1.10E-04,0
STARLINK-32714,2025-003N,2025-07-21T06:17:22.338240,15.27594308,0.0001423,43.0003,156.3058,275.1537,84.9152,0,U,62499,999,3127,4.41E-04,1.19E-04,0
STARLINK-32685,2025-003P,2025-07-21T06:06:16.392960,15.27589231,0.0000632,42.999,156.2485,258.6275,101.4506,0,U,62500,999,3122,4.21E-04,1.13E-04,0
