STARLINK-11486 [DTC]    
1 62467U 24254F   25202.34832933  .00105265  00000+0  81304-3 0  9995
2 62467  42.9994 177.7534 0001412 266.2456  93.8250 15.70853399 33011
STARLINK-11511 [DTC]    
1 62468U 24254G   25202.32707265  .00198565  00000+0  15082-2 0  9997
2 62468  43.0003 177.5822 0002384 287.3224  72.7382 15.70934988 33015
STARLINK-11505 [DTC]    
1 62469U 24254H   25202.31647301  .00217090  00000+0  16475-2 0  9993
2 62469  42.9999 177.4960 0001799 282.8863  77.1804 15.70897896 33001
STARLINK-11497 [DTC]    
1 62470U 24254J   25202.20523344  .00139216  00000+0  10693-2 0  9992
2 62470  42.9997 178.3906 0001822 274.2200  85.8460 15.70863167 32993
STARLINK-11477 [DTC]    
1 62471U 24254K   25201.94650346  .00236927  00000+0  17878-2 0  9995
2 62471  42.9986 179.8874 0001370 236.2545 123.8193 15.70972727 32944
STARLINK-11500 [DTC]    
1 62472U 24254L   25202.30585240  .00179782  00000+0  13716-2 0  9999
2 62472  43.0015 177.4090 0002275 276.0216  84.0393 15.70889283 32489
STARLINK-11464 [DTC]    
1 62473U 24254M   25202.21054294  .00153867  00000+0  11794-2 0  9990
2 62473  42.9984 178.4316 0001787 259.2103 100.8563 15.70862822 32992
STARLINK-11502 [DTC]    
1 62474U 24254N   25201.43162898  .00241032  00000+0  18275-2 0  9997
2 62474  42.9989 182.9027 0001954  28.6961 331.4014 15.70845733 32875
STARLINK-32657          
1 62475U 24254P   25201.82114263  .00012583  00000+0  46596-3 0  9999
2 62475  42.9954 249.1360 0000650 250.0342 110.0439 15.27581374 32007
STARLINK-32734          
1 62476U 24254Q   25202.17168410  .00012744  00000+0  47167-3 0  9996
2 62476  43.0009 244.0064 0001465 261.7527  98.3159 15.27589825 32247
STARLINK-32733          
1 62477U 24254R   25202.19723682  .00017527  00000+0  64472-3 0  9999
2 62477  42.9990 243.3315 0001792 276.5382  83.5266 15.27590684 32253
STARLINK-32707          
1 62478U 24254S   25202.22679009  .00004775  00000+0  18290-3 0  9995
2 62478  42.9999 243.5527 0001275 266.2754  93.7952 15.27582863 32250
STARLINK-32705          
1 62479U 24254T   25202.43790622  .00013624  00000+0  50351-3 0  9991
2 62479  42.9957 234.7746 0001393 272.4825  87.5867 15.27591247 32217
STARLINK-32743          
1 62480U 24254U   25202.38568573  .00020084  00000+0  73690-3 0  9994
2 62480  42.9982 242.1690 0001089 270.4212  89.6514 15.27601659 32286
STARLINK-32753          
1 62481U 24254V   25202.13956194  .00012979  00000+0  48024-3 0  9995
2 62481  42.9968 243.7586 0001292 267.1038  92.9666 15.27586859 32242
STARLINK-32699          
1 62482U 24254W   25202.40319313  .00022791  00000+0  83480-3 0  9990
2 62482  42.9959 245.7642 0000911 270.3863  89.6884 15.27593799 32085
STARLINK-32713          
1 62487U 25003A   25202.30560744  .00010292  00000+0  38283-3 0  9997
2 62487  42.9992 155.7731 0000779 262.8382  97.2381 15.27592992 31114
STARLINK-32732          
1 62488U 25003B   25202.27219775  .00006626  00000+0  25011-3 0  9990
2 62488  43.0017 155.5123 0001767 275.5543  84.5107 15.27579775 31126
STARLINK-32328          
1 62489U 25003C   25202.25564495  .00015432  00000+0  56899-3 0  9994
2 62489  43.0003 156.2585 0000252 306.6218  53.4610 15.27587585 31273
STARLINK-32332          
1 62490U 25003D   25201.59021304  .00014722  00000+0  54345-3 0  9994
2 62490  43.0019 159.8626 0001036 266.0257  94.0477 15.27578822 31164
STARLINK-32717          
1 62491U 25003E   25202.22480234  .00011654  00000+0  43228-3 0  9996
2 62491  42.9988 156.0203 0000949 261.0183  99.0561 15.27586150 31277
STARLINK-32757          
1 62492U 25003F   25202.25050357  .00010088  00000+0  37564-3 0  9995
2 62492  42.9978 156.2184 0001551 260.1686  99.8990 15.27576469 31103
STARLINK-32731          
1 62493U 25003G   25202.19796770  .00012490  00000+0  46218-3 0  9990
2 62493  43.0007 156.6812 0001547 254.4821 105.5860 15.27611485 31269
STARLINK-32694          
1 62494U 25003H   25202.21452108  .00014079  00000+0  52003-3 0  9992
2 62494  42.9956 155.9406 0001137 275.2149  84.8573 15.27587543 31279
STARLINK-32708          
1 62495U 25003J   25202.18125895  .00014542  00000+0  53670-3 0  9995
2 62495  43.0013 156.5550 0000130 343.4430  16.6418 15.27593787 31140
STARLINK-32718          
1 62496U 25003K   25202.21066710  .00016128  00000+0  59422-3 0  9993
2 62496  42.9974 155.9173 0001509 274.4924  85.5755 15.27585285 31111
STARLINK-32729          
1 62497U 25003L   25202.28375915  .00012709  00000+0  47041-3 0  9996
2 62497  42.9995 155.5956 0001595 268.6602  91.4067 15.27589705 31284
STARLINK-32739          
1 62498U 25003M   25201.57993601  .00010955  00000+0  40697-3 0  9997
2 62498  42.9944 159.7764 0000477 345.5960  14.4878 15.27584232 31120
STARLINK-32714          
1 62499U 25003N   25202.26206410  .00011906  00000+0  44129-3 0  9991
2 62499  43.0003 156.3058 0001423 275.1537  84.9152 15.27594308 31276
STARLINK-32685          
1 62500U 25003P   25202.25435640  .00011334  00000+0  42065-3 0  9994
2 62500  42.9990 156.2485 0000632 258.6275 101.4506 15.27589231 31223
